*******************************************************************************
 Revised: September 30, 2021           Uranus                               799
 
 PHYSICAL DATA:
  Mass x10^24 (kg)      = 86.813          Density (g/cm^3)       =  1.271
  Equat. radius (1 bar) = 25559+-4 km     Polar radius (km)      = 24973+-20
  Vol. Mean Radius (km) = 25362+-12       Flattening             =  0.02293
  Geometric Albedo      = 0.51
  Sid. rot. period (III)= 17.24+-0.01 h   Sid. rot. rate (rad/s) = -0.000101237
  Mean solar day, h     =~17.24           Rocky core mass (Mc/M) =  0.0012        
  GM (km^3/s^2)         = 5793951.256     GM 1-sigma (km^3/s^2)  = +-4.3 
  Equ. grav, ge (m/s^2) =  8.87           Pol. grav, gp (m/s^2)  =   9.19+-0.02
  Visual magnitude V(1,0)= -7.11
  Vis. mag. (opposition)=  +5.52          Obliquity to orbit     = 97.77 deg
  Sidereal orbit period = 84.0120465 y    Sidereal orbit period  = 30685.4 d
  Mean daily motion     = 0.01176904 dg/d Mean orbit velocity    =  6.8 km/s
  Atmos. temp. (1 bar)  =  76+-2 K        Escape speed, km/s     =  21.3           
  Aroche(ice)/Rp        =  2.20           Hill's sphere rad., Rp = 2700
                                 Perihelion   Aphelion    Mean
  Solar Constant (W/m^2)         4.09         3.39        3.71
  Maximum Planetary IR (W/m^2)   0.72         0.55        0.63
  Minimum Planetary IR (W/m^2)   0.72         0.55        0.63
*******************************************************************************


*******************************************************************************
Ephemeris / WWW_USER Sat Jun 10 10:45:39 2023 Pasadena, USA      / Horizons
*******************************************************************************
Target body name: Uranus (799)                    {source: ura116}
Center body name: Earth (399)                     {source: ura116}
Center-site name: Greenwich
*******************************************************************************
Start time      : A.D. 1930-Jan-01 00:00:00.0000 TDB
Stop  time      : A.D. 2030-Jan-01 00:00:00.0000 TDB
Step-size       : 10080 minutes
*******************************************************************************
Center geodetic : 0.0, 51.4773207, .0670693       {E-lon(deg),Lat(deg),Alt(km)}
Center cylindric: 0.0, 3980.6647, 4966.84378      {E-lon(deg),Dxy(km),Dz(km)}
Center pole/equ : ITRF93                          {East-longitude positive}
Center radii    : 6378.137, 6378.137, 6356.752 km {Equator_a, b, pole_c}
Output units    : KM-S
Calendar mode   : Mixed Julian/Gregorian
Output type     : GEOMETRIC cartesian states
Output format   : 1 (position only)
EOP file        : eop.230609.p230901
EOP coverage    : DATA-BASED 1962-JAN-20 TO 2023-JUN-09. PREDICTS-> 2023-AUG-31
Reference frame : Ecliptic of J2000.0
*******************************************************************************
JDTDB
   X     Y     Z
*******************************************************************************
$$SOE
2462391.500000000 = A.D. 2029-Sep-12 00:00:00.0000 TDB 
 X = 5.933615416374515E+08 Y = 2.809765212133646E+09 Z = 7.127300523097515E+05
2462398.500000000 = A.D. 2029-Sep-19 00:00:00.0000 TDB 
 X = 5.873097531068909E+08 Y = 2.792839945289641E+09 Z = 7.698147581344843E+05
2462405.500000000 = A.D. 2029-Sep-26 00:00:00.0000 TDB 
 X = 5.833916565200119E+08 Y = 2.775764279130427E+09 Z = 8.263981484799385E+05
2462412.500000000 = A.D. 2029-Oct-03 00:00:00.0000 TDB 
 X = 5.816177448207427E+08 Y = 2.758781966574859E+09 Z = 8.823074027788639E+05
2462419.500000000 = A.D. 2029-Oct-10 00:00:00.0000 TDB 
 X = 5.819814908810128E+08 Y = 2.742149578231109E+09 Z = 9.388216019331217E+05
2462426.500000000 = A.D. 2029-Oct-17 00:00:00.0000 TDB 
 X = 5.844330703045131E+08 Y = 2.726138388032370E+09 Z = 9.957805748882294E+05
2462433.500000000 = A.D. 2029-Oct-24 00:00:00.0000 TDB 
 X = 5.888760817821516E+08 Y = 2.710997296713146E+09 Z = 1.052043665208220E+06
2462440.500000000 = A.D. 2029-Oct-31 00:00:00.0000 TDB 
 X = 5.951991602430280E+08 Y = 2.696953608674691E+09 Z = 1.107628184574366E+06
2462447.500000000 = A.D. 2029-Nov-07 00:00:00.0000 TDB 
 X = 6.032731216777775E+08 Y = 2.684233800497690E+09 Z = 1.163884017107010E+06
2462454.500000000 = A.D. 2029-Nov-14 00:00:00.0000 TDB 
 X = 6.129260300376931E+08 Y = 2.673061362304766E+09 Z = 1.220424834968209E+06
2462461.500000000 = A.D. 2029-Nov-21 00:00:00.0000 TDB 
 X = 6.239473022463011E+08 Y = 2.663619727411250E+09 Z = 1.276115608126283E+06
2462468.500000000 = A.D. 2029-Nov-28 00:00:00.0000 TDB 
 X = 6.361205656361883E+08 Y = 2.656058224299188E+09 Z = 1.331148280209541E+06
2462475.500000000 = A.D. 2029-Dec-05 00:00:00.0000 TDB 
 X = 6.492193714844085E+08 Y = 2.650512766816693E+09 Z = 1.386879820290446E+06
2462482.500000000 = A.D. 2029-Dec-12 00:00:00.0000 TDB 
 X = 6.629841044975806E+08 Y = 2.647100554925996E+09 Z = 1.442760041377425E+06
2462489.500000000 = A.D. 2029-Dec-19 00:00:00.0000 TDB 
 X = 6.771333826597004E+08 Y = 2.645885705955462E+09 Z = 1.497690336597562E+06
2462496.500000000 = A.D. 2029-Dec-26 00:00:00.0000 TDB 
 X = 6.913967810437380E+08 Y = 2.646891310898913E+09 Z = 1.552089557281613E+06
